NORAD_CAT_ID,OBJECT_NAME,OBJECT_TYPE,EPOCH,MEAN_MOTION,ECCENTRICITY,INCLINATION,RA_OF_ASC_NODE,ARG_OF_PERICENTER,MEAN_ANOMALY,BSTAR,MEAN_MOTION_DOT,MEAN_MOTION_DDOT,TLE_LINE0,TLE_LINE1,TLE_LINE2,SEMIMAJOR_AXIS,PERIOD,APOGEE,PERIGEE,DECAYED
53250.0,STARLINK-4059,PAYLOAD,2022-11-09 13:05:37,15.08841996,0.0002807,53.2179,253.6137,34.9125,325.205,9.3718e-05,1.203e-05,0.0,0 STARLINK-4059,1 53250U 22086J   22313.54556951  .00001203  00000-0  93718-4 0  9992,2 53250  53.2179 253.6137 0002807  34.9125 325.2050 15.08841996 17480,6917.874,95.437,541.681,537.797,0.0
53250.0,STARLINK-4059,PAYLOAD,2022-11-10 01:48:44,15.08815266,0.0002253,53.2191,251.2373,30.5271,329.5852,-0.00015514,-2.755e-05,0.0,0 STARLINK-4059,1 53250U 22086J   22314.07551911 -.00002755  00000-0 -15514-3 0  9994,2 53250  53.2191 251.2373 0002253  30.5271 329.5852 15.08815266 17364,6917.956,95.439,541.38,538.262,0.0
53250.0,STARLINK-4059,PAYLOAD,2022-11-10 12:56:26,15.0882214,0.0002432,53.2185,249.1543,29.7956,330.3174,-0.00020295,-3.515e-05,0.0,0 STARLINK-4059,1 53250U 22086J   22314.53920073 -.00003515  00000-0 -20295-3 0  9991,2 53250  53.2185 249.1543 0002432  29.7956 330.3174 15.08822140 17637,6917.935,95.439,541.482,538.118,0.0
53250.0,STARLINK-4059,PAYLOAD,2022-11-11 04:50:18,15.08830834,0.000246,53.2191,246.1799,31.9171,328.19699999999995,-0.00025494,-4.343e-05,0.0,0 STARLINK-4059,1 53250U 22086J   22315.20160198 -.00004343  00000-0 -25494-3 0  9996,2 53250  53.2191 246.1799 0002460  31.9171 328.1970 15.08830834 17536,6917.908,95.438,541.475,538.072,0.0
53250.0,STARLINK-4059,PAYLOAD,2022-11-11 12:47:13,15.08838816,0.0002498,53.219,244.6941,32.0352,328.0791,-0.00018098,-3.168e-05,0.0,0 STARLINK-4059,1 53250U 22086J   22315.53279677 -.00003168  00000-0 -18098-3 0  9991,2 53250  53.2190 244.6941 0002498  32.0352 328.0791 15.08838816 17584,6917.884,95.438,541.477,538.021,0.0
53250.0,STARLINK-4059,PAYLOAD,2022-11-11 19:08:46,15.08814303,0.0002435,53.2191,243.5038,32.7963,327.318,0.0002046,2.967e-05,0.0,0 STARLINK-4059,1 53250U 22086J   22315.79776355  .00002967  00000-0  20460-3 0  9994,2 53250  53.2191 243.5038 0002435  32.7963 327.3180 15.08814303 17620,6917.959,95.439,541.508,538.139,0.0
53250.0,STARLINK-4059,PAYLOAD,2022-11-12 04:41:04,15.08835392,0.0002431,53.2187,241.7211,33.9513,326.1634,0.00033708,5.08e-05,0.0,0 STARLINK-4059,1 53250U 22086J   22316.19519249  .00005080  00000-0  33708-3 0  9994,2 53250  53.2187 241.7211 0002431  33.9513 326.1634 15.08835392 17686,6917.894,95.438,541.441,538.078,0.0
53250.0,STARLINK-4059,PAYLOAD,2022-11-12 17:24:09,15.08846858,0.0002369,53.2184,239.343,32.4076,327.7061,0.00042218,6.439e-05,0.0,0 STARLINK-4059,1 53250U 22086J   22316.72510468  .00006439  00000-0  42218-3 0  9992,2 53250  53.2184 239.3430 0002369  32.4076 327.7061 15.08846858 17766,6917.859,95.437,541.363,538.086,0.0
53250.0,STARLINK-4059,PAYLOAD,2022-11-12 20:34:55,15.08843297,0.0002371,53.2185,238.7486,32.5777,327.5361,0.00039341,5.979e-05,0.0,0 STARLINK-4059,1 53250U 22086J   22316.85758925  .00005979  00000-0  39341-3 0  9999,2 53250  53.2185 238.7486 0002371  32.5777 327.5361 15.08843297 17982,6917.87,95.437,541.376,538.095,0.0
53250.0,STARLINK-4059,PAYLOAD,2022-11-13 01:21:05,15.08853427,0.0002418,53.2178,237.857,31.6659,328.4479,0.00042354,6.461e-05,0.0,0 STARLINK-4059,1 53250U 22086J   22317.05631336  .00006461  00000-0  42354-3 0  9993,2 53250  53.2178 237.8570 0002418  31.6659 328.4479 15.08853427 17817,6917.839,95.437,541.377,538.0319999999998,0.0
53250.0,STARLINK-4059,PAYLOAD,2022-11-13 04:31:51,15.08859662,0.000245,53.2175,237.2624,32.1843,327.9298,0.00042815,6.536e-05,0.0,0 STARLINK-4059,1 53250U 22086J   22317.18879125  .00006536  00000-0  42815-3 0  9992,2 53250  53.2175 237.2624 0002450  32.1843 327.9298 15.08859662 18030,6917.82,95.436,541.38,537.99,0.0
53250.0,STARLINK-4059,PAYLOAD,2022-11-13 18:50:20,15.08837931,0.0002306,53.2175,234.5839,43.4964,316.621,-0.00023178,-3.975e-05,0.0,0 STARLINK-4059,1 53250U 22086J   22317.78495572 -.00003975  00000-0 -23178-3 0  9995,2 53250  53.2175 234.5839 0002306  43.4964 316.6210 15.08837931 17928,6917.887,95.438,541.347,538.156,0.0
53250.0,STARLINK-4059,PAYLOAD,2022-11-14 01:11:52,15.08844433,0.0002513,53.2177,233.3979,32.4204,327.6942,-0.00012219,-2.233e-05,0.0,0 STARLINK-4059,1 53250U 22086J   22318.04991517 -.00002233  00000-0 -12219-3 0  9995,2 53250  53.2177 233.3979 0002513  32.4204 327.6942 15.08844433 18163,6917.8669999999975,95.437,541.47,537.993,0.0
53250.0,STARLINK-4059,PAYLOAD,2022-11-14 18:41:06,15.08845633,0.0002481,53.2174,230.1258,31.5085,328.6056,-2.6182e-05,-7.05e-06,0.0,0 STARLINK-4059,1 53250U 22086J   22318.77855100 -.00000705  00000-0 -26182-4 0  9999,2 53250  53.2174 230.1258 0002481  31.5085 328.6056 15.08845633 18278,6917.863,95.437,541.444,538.012,0.0
53250.0,STARLINK-4059,PAYLOAD,2022-11-14 21:51:53,15.08845756,0.0002475,53.2175,229.5312,31.9036,328.2106,-1.3209e-05,-4.99e-06,0.0,0 STARLINK-4059,1 53250U 22086J   22318.91103033 -.00000499  00000-0 -13209-4 0  9992,2 53250  53.2175 229.5312 0002475  31.9036 328.2106 15.08845756 18093,6917.863,95.437,541.44,538.016,0.0
53250.0,STARLINK-4059,PAYLOAD,2022-11-15 10:34:58,15.08844062,0.0002493,53.2172,227.1524,34.4761,325.6392,5.3564e-05,5.64e-06,0.0,0 STARLINK-4059,1 53250U 22086J   22319.44094935  .00000564  00000-0  53564-4 0  9990,2 53250  53.2172 227.1524 0002493  34.4761 325.6392 15.08844062 18370,6917.868,95.437,541.4580000000002,538.008,0.0
53250.0,STARLINK-4059,PAYLOAD,2022-11-15 21:42:40,15.08829541,0.0002328,53.2176,225.07,32.3329,327.7805,-6.4188e-05,-1.309e-05,0.0,0 STARLINK-4059,1 53250U 22086J   22319.90463779 -.00001309  00000-0 -64188-4 0  9991,2 53250  53.2176 225.0700 0002328  32.3329 327.7805 15.08829541 18244,6917.9119999999975,95.438,541.388,538.1669999999998,0.0
53250.0,STARLINK-4059,PAYLOAD,2022-11-16 00:53:27,15.08829321,0.0002321,53.2183,224.4749,32.8507,327.2629,2.3708e-05,8.9e-07,0.0,0 STARLINK-4059,1 53250U 22086J   22320.03712209  .00000089  00000-0  23708-4 0  9997,2 53250  53.2183 224.4749 0002321  32.8507 327.2629 15.08829321 18463,6917.913000000001,95.438,541.384,538.172,0.0
53250.0,STARLINK-4059,PAYLOAD,2022-11-16 16:47:17,15.0884169,0.0002391,53.2184,221.5024,33.107,327.0071,0.00014671,2.047e-05,0.0,0 STARLINK-4059,1 53250U 22086J   22320.69951327  .00002047  00000-0  14671-3 0  9999,2 53250  53.2184 221.5024 0002391  33.1070 327.0071 15.08841690 18365,6917.875,95.437,541.394,538.086,0.0
53250.0,STARLINK-4059,PAYLOAD,2022-11-16 19:58:04,15.08844389,0.0002349,53.2184,220.9077,33.9292,326.185,0.00017187,2.448e-05,0.0,0 STARLINK-4059,1 53250U 22086J   22320.83199146  .00002448  00000-0  17187-3 0  9998,2 53250  53.2184 220.9077 0002349  33.9292 326.1850 15.08844389 18580,6917.8669999999975,95.437,541.357,538.107,0.0
53250.0,STARLINK-4059,PAYLOAD,2022-11-17 00:44:13,15.08849773,0.0002428,53.2176,220.016,33.4454,326.6691,0.00022296,3.263e-05,0.0,0 STARLINK-4059,1 53250U 22086J   22321.03070883  .00003263  00000-0  22296-3 0  9990,2 53250  53.2176 220.0160 0002428  33.4454 326.6691 15.08849773 18410,6917.851,95.437,541.395,538.036,0.0
53250.0,STARLINK-4059,PAYLOAD,2022-11-17 11:51:54,15.08851642,0.0002258,53.2175,217.9349,35.715,324.3993,0.00019486,2.815e-05,0.0,0 STARLINK-4059,1 53250U 22086J   22321.49438615  .00002815  00000-0  19486-3 0  9990,2 53250  53.2175 217.9349 0002258  35.7150 324.3993 15.08851642 18689,6917.845,95.437,541.2719999999998,538.148,0.0
53250.0,STARLINK-4059,PAYLOAD,2022-11-17 19:48:50,15.08847698,0.0002531,53.217,216.4483,35.4434,324.6726,-0.00015987,-2.833e-05,0.0,0 STARLINK-4059,1 53250U 22086J   22321.82558705 -.00002833  00000-0 -15987-3 0  9994,2 53250  53.2170 216.4483 0002531  35.4434 324.6726 15.08847698 18732,6917.857,95.437,541.4730000000002,537.971,0.0
53250.0,STARLINK-4059,PAYLOAD,2022-11-18 02:10:23,15.08835663,0.0002378,53.217,215.258,35.5666,324.5484,-2.5271e-05,-6.91e-06,0.0,0 STARLINK-4059,1 53250U 22086J   22322.09055319 -.00000691  00000-0 -25271-4 0  9995,2 53250  53.2170 215.2580 0002378  35.5666 324.5484 15.08835663 18575,6917.894,95.438,541.404,538.114,0.0
53250.0,STARLINK-4059,PAYLOAD,2022-11-18 11:42:42,15.08842733,0.0002372,53.217,213.4736,32.8906,327.2233,5.8795e-05,6.48e-06,0.0,0 STARLINK-4059,1 53250U 22086J   22322.48799014  .00000648  00000-0  58795-4 0  9992,2 53250  53.2170 213.4736 0002372  32.8906 327.2233 15.08842733 18836,6917.871999999999,95.437,541.378,538.096,0.0
53250.0,STARLINK-4059,PAYLOAD,2022-11-18 19:39:38,15.08834732,0.0002318,53.2174,211.9868,33.9737,326.1404,-9.6227e-05,-1.819e-05,0.0,0 STARLINK-4059,1 53250U 22086J   22322.81919540 -.00001819  00000-0 -96227-4 0  9992,2 53250  53.2174 211.9868 0002318  33.9737 326.1404 15.08834732 18886,6917.896,95.438,541.365,538.158,0.0
53250.0,STARLINK-4059,PAYLOAD,2022-11-19 09:58:06,15.08842417,0.0002443,53.2179,209.3101,36.5281,323.5877,-2.2157e-06,-3.24e-06,0.0,0 STARLINK-4059,1 53250U 22086J   22323.41535652 -.00000324  00000-0 -22157-5 0  9999,2 53250  53.2179 209.3101 0002443  36.5281 323.5877 15.08842417 18776,6917.873000000001,95.437,541.428,538.048,0.0
53250.0,STARLINK-4059,PAYLOAD,2022-11-19 19:30:25,15.08842022,0.0002537,53.218,207.527,35.1499,324.9661,0.00012981,1.778e-05,0.0,0 STARLINK-4059,1 53250U 22086J   22323.81279267  .00001778  00000-0  12981-3 0  9994,2 53250  53.2180 207.5270 0002537  35.1499 324.9661 15.08842022 19033,6917.874,95.437,541.494,537.984,0.0
53250.0,STARLINK-4059,PAYLOAD,2022-11-20 01:51:57,15.08844241,0.0002466,53.2182,206.3369,36.3882,323.7277,0.00017986,2.576e-05,0.0,0 STARLINK-4059,1 53250U 22086J   22324.07775076  .00002576  00000-0  17986-3 0  9999,2 53250  53.2182 206.3369 0002466  36.3882 323.7277 15.08844241 19070,6917.8669999999975,95.437,541.438,538.026,0.0
